{
    "links": {
        "self": "http://www.neowsapp.com/rest/v1/neo/3836903?api_key=iIulBulltgU6a56xZRHN4H3l9WmuAYTsLGpBGhQ2"
    },
    "id": "3836903",
    "neo_reference_id": "3836903",
    "name": "(2018 XP4)",
    "designation": "2018 XP4",
    "nasa_jpl_url": "http://ssd.jpl.nasa.gov/sbdb.cgi?sstr=3836903",
    "absolute_magnitude_h": 24.3,
    "estimated_diameter": {
        "kilometers": {
            "estimated_diameter_min": 0.0366906138,
            "estimated_diameter_max": 0.0820427065
        },
        "meters": {
            "estimated_diameter_min": 36.6906137531,
            "estimated_diameter_max": 82.0427064882
        },
        "miles": {
            "estimated_diameter_min": 0.0227984834,
            "estimated_diameter_max": 0.0509789586
        },
        "feet": {
            "estimated_diameter_min": 120.3760332259,
            "estimated_diameter_max": 269.1689931548
        }
    },
    "is_potentially_hazardous_asteroid": false,
    "close_approach_data": [
        {
            "close_approach_date": "2018-12-02",
            "close_approach_date_full": "2018-Dec-02 07:25",
            "epoch_date_close_approach": 1543735500000,
            "relative_velocity": {
                "kilometers_per_second": "22.7279397062",
                "kilometers_per_hour": "81820.582942477",
                "miles_per_hour": "50840.1283288963"
            },
            "miss_distance": {
                "astronomical": "0.0361302756",
                "lunar": "14.0546772084",
                "kilometers": "5405012.272272972",
                "miles": "3358518.8894001336"
            },
            "orbiting_body": "Earth"
        }
    ],
    "orbital_data": {
        "orbit_id": "1",
        "orbit_determination_date": "2018-12-15 10:12:02",
        "first_observation_date": "2018-12-13",
        "last_observation_date": "2018-12-15",
        "data_arc_in_days": 2,
        "observations_used": 17,
        "orbit_uncertainty": "9",
        "minimum_orbit_intersection": ".0284413",
        "jupiter_tisserand_invariant": "3.074",
        "epoch_osculation": "2458466.5",
        "eccentricity": ".7500486296109407",
        "semi_major_axis": "2.38895880916425",
        "inclination": "1.750213975419773",
        "ascending_node_longitude": "142.1161288536992",
        "orbital_period": "1348.687770044034",
        "perihelion_distance": ".5971235281536196",
        "perihelion_argument": "200.9607845209278",
        "aphelion_distance": "4.180794090174881",
        "perihelion_time": "2458410.827202442497",
        "mean_anomaly": "14.86052410784945",
        "mean_motion": ".2669261247829409",
        "equinox": "J2000",
        "orbit_class": {
            "orbit_class_type": "APO",
            "orbit_class_description": "Near-Earth asteroid orbits which cross the Earth’s orbit similar to that of 1862 Apollo",
            "orbit_class_range": "a (semi-major axis) > 1.0 AU; q (perihelion) < 1.017 AU"
        }
    },
    "is_sentry_object": false
}